[{"OBJECT_NAME":"AMC-3","OBJECT_ID":"1997-050A","EPOCH":"2026-04-25T20:06:41.402016","MEAN_MOTION":1.00271597,"ECCENTRICITY":0.0003064,"INCLINATION":8.0204,"RA_OF_ASC_NODE":64.6743,"ARG_OF_PERICENTER":318.6,"MEAN_ANOMALY":60.2457,"EPHEMERIS_TYPE":0,"CLASSIFICATION_TYPE":"U","NORAD_CAT_ID":24936,"ELEMENT_SET_NO":999,"REV_AT_EPOCH":5191,"BSTAR":0,"MEAN_MOTION_DOT":-2.71e-6,"MEAN_MOTION_DDOT":0},{"OBJECT_NAME":"NSS-11","OBJECT_ID":"2000-059A","EPOCH":"2026-04-25T19:34:51.954240","MEAN_MOTION":1.00272328,"ECCENTRICITY":0.0002818,"INCLINATION":1.9932,"RA_OF_ASC_NODE":81.9709,"ARG_OF_PERICENTER":311.9002,"MEAN_ANOMALY":289.6664,"EPHEMERIS_TYPE":0,"CLASSIFICATION_TYPE":"U","NORAD_CAT_ID":26554,"ELEMENT_SET_NO":999,"REV_AT_EPOCH":4076,"BSTAR":0,"MEAN_MOTION_DOT":1.3e-7,"MEAN_MOTION_DDOT":0},{"OBJECT_NAME":"AMC-6","OBJECT_ID":"2000-067A","EPOCH":"2026-04-25T16:23:30.608160","MEAN_MOTION":1.0027371,"ECCENTRICITY":0.0003888,"INCLINATION":0.0737,"RA_OF_ASC_NODE":68.5061,"ARG_OF_PERICENTER":342.5633,"MEAN_ANOMALY":273.4884,"EPHEMERIS_TYPE":0,"CLASSIFICATION_TYPE":"U","NORAD_CAT_ID":26580,"ELEMENT_SET_NO":999,"REV_AT_EPOCH":9336,"BSTAR":0,"MEAN_MOTION_DOT":7.4e-7,"MEAN_MOTION_DDOT":0},{"OBJECT_NAME":"AMC-11","OBJECT_ID":"2004-017A","EPOCH":"2026-04-22T10:43:50.398176","MEAN_MOTION":1.00142859,"ECCENTRICITY":0.00076483,"INCLINATION":0.1658,"RA_OF_ASC_NODE":82.1764,"ARG_OF_PERICENTER":52.9899,"MEAN_ANOMALY":122.7668,"EPHEMERIS_TYPE":0,"CLASSIFICATION_TYPE":"U","NORAD_CAT_ID":28252,"ELEMENT_SET_NO":999,"REV_AT_EPOCH":8030,"BSTAR":0,"MEAN_MOTION_DOT":-2.4e-7,"MEAN_MOTION_DDOT":0},{"OBJECT_NAME":"AMC-15","OBJECT_ID":"2004-041A","EPOCH":"2026-04-25T15:00:38.644992","MEAN_MOTION":1.00277034,"ECCENTRICITY":0.000258,"INCLINATION":0.0492,"RA_OF_ASC_NODE":54.728,"ARG_OF_PERICENTER":337.2203,"MEAN_ANOMALY":301.7915,"EPHEMERIS_TYPE":0,"CLASSIFICATION_TYPE":"U","NORAD_CAT_ID":28446,"ELEMENT_SET_NO":999,"REV_AT_EPOCH":7877,"BSTAR":0,"MEAN_MOTION_DOT":-1.03e-6,"MEAN_MOTION_DDOT":0},{"OBJECT_NAME":"NSS-10","OBJECT_ID":"2005-003A","EPOCH":"2026-04-24T18:36:27.711072","MEAN_MOTION":1.00271973,"ECCENTRICITY":0.0003015,"INCLINATION":6.3158,"RA_OF_ASC_NODE":71.0753,"ARG_OF_PERICENTER":288.4515,"MEAN_ANOMALY":94.9373,"EPHEMERIS_TYPE":0,"CLASSIFICATION_TYPE":"U","NORAD_CAT_ID":28526,"ELEMENT_SET_NO":999,"REV_AT_EPOCH":5262,"BSTAR":0,"MEAN_MOTION_DOT":-2.62e-6,"MEAN_MOTION_DDOT":0},{"OBJECT_NAME":"ASTRA 1KR","OBJECT_ID":"2006-012A","EPOCH":"2026-04-25T18:50:03.750432","MEAN_MOTION":1.00273146,"ECCENTRICITY":0.0003441,"INCLINATION":0.3397,"RA_OF_ASC_NODE":82.5434,"ARG_OF_PERICENTER":309.4157,"MEAN_ANOMALY":123.3411,"EPHEMERIS_TYPE":0,"CLASSIFICATION_TYPE":"U","NORAD_CAT_ID":29055,"ELEMENT_SET_NO":999,"REV_AT_EPOCH":4517,"BSTAR":0,"MEAN_MOTION_DOT":1.06e-6,"MEAN_MOTION_DDOT":0},{"OBJECT_NAME":"ASTRA 1L","OBJECT_ID":"2007-016A","EPOCH":"2026-04-25T10:07:38.619264","MEAN_MOTION":1.00271554,"ECCENTRICITY":0.0004626,"INCLINATION":1.187,"RA_OF_ASC_NODE":81.9114,"ARG_OF_PERICENTER":327.5338,"MEAN_ANOMALY":291.3944,"EPHEMERIS_TYPE":0,"CLASSIFICATION_TYPE":"U","NORAD_CAT_ID":31306,"ELEMENT_SET_NO":999,"REV_AT_EPOCH":4445,"BSTAR":0,"MEAN_MOTION_DOT":-1.98e-6,"MEAN_MOTION_DDOT":0},{"OBJECT_NAME":"ASTRA 4A","OBJECT_ID":"2007-057A","EPOCH":"2026-04-25T03:21:57.931776","MEAN_MOTION":1.00273242,"ECCENTRICITY":0.00026748,"INCLINATION":0.02,"RA_OF_ASC_NODE":27.1684,"ARG_OF_PERICENTER":18.0659,"MEAN_ANOMALY":223.224,"EPHEMERIS_TYPE":0,"CLASSIFICATION_TYPE":"U","NORAD_CAT_ID":32299,"ELEMENT_SET_NO":999,"REV_AT_EPOCH":5111,"BSTAR":0,"MEAN_MOTION_DOT":1.8e-7,"MEAN_MOTION_DDOT":0},{"OBJECT_NAME":"ASTRA 1M","OBJECT_ID":"2008-057A","EPOCH":"2026-04-25T18:50:11.236992","MEAN_MOTION":1.00273939,"ECCENTRICITY":0.000375,"INCLINATION":0.1624,"RA_OF_ASC_NODE":79.3258,"ARG_OF_PERICENTER":1.417,"MEAN_ANOMALY":74.9994,"EPHEMERIS_TYPE":0,"CLASSIFICATION_TYPE":"U","NORAD_CAT_ID":33436,"ELEMENT_SET_NO":999,"REV_AT_EPOCH":4521,"BSTAR":0,"MEAN_MOTION_DOT":1.07e-6,"MEAN_MOTION_DDOT":0},{"OBJECT_NAME":"NSS-9","OBJECT_ID":"2009-008A","EPOCH":"2026-04-25T19:36:51.763392","MEAN_MOTION":1.00271385,"ECCENTRICITY":0.000216,"INCLINATION":1.1281,"RA_OF_ASC_NODE":83.0801,"ARG_OF_PERICENTER":293.4689,"MEAN_ANOMALY":314.5546,"EPHEMERIS_TYPE":0,"CLASSIFICATION_TYPE":"U","NORAD_CAT_ID":33749,"ELEMENT_SET_NO":999,"REV_AT_EPOCH":6299,"BSTAR":0,"MEAN_MOTION_DOT":5.9e-7,"MEAN_MOTION_DDOT":0},{"OBJECT_NAME":"SES-7 (PROTOSTAR 2)","OBJECT_ID":"2009-027A","EPOCH":"2026-04-25T19:15:31.309344","MEAN_MOTION":1.00270853,"ECCENTRICITY":0.000178,"INCLINATION":0.0951,"RA_OF_ASC_NODE":79.148,"ARG_OF_PERICENTER":244.8253,"MEAN_ANOMALY":286.9758,"EPHEMERIS_TYPE":0,"CLASSIFICATION_TYPE":"U","NORAD_CAT_ID":34941,"ELEMENT_SET_NO":999,"REV_AT_EPOCH":6210,"BSTAR":0,"MEAN_MOTION_DOT":-3.58e-6,"MEAN_MOTION_DDOT":0},{"OBJECT_NAME":"NSS-12","OBJECT_ID":"2009-058A","EPOCH":"2026-04-25T19:00:55.209024","MEAN_MOTION":1.00271862,"ECCENTRICITY":0.0005054,"INCLINATION":0.0608,"RA_OF_ASC_NODE":61.5946,"ARG_OF_PERICENTER":309.9842,"MEAN_ANOMALY":184.446,"EPHEMERIS_TYPE":0,"CLASSIFICATION_TYPE":"U","NORAD_CAT_ID":36032,"ELEMENT_SET_NO":999,"REV_AT_EPOCH":6039,"BSTAR":0,"MEAN_MOTION_DOT":5.8e-7,"MEAN_MOTION_DDOT":0},{"OBJECT_NAME":"SES-1","OBJECT_ID":"2010-016A","EPOCH":"2026-04-25T10:02:49.073856","MEAN_MOTION":1.00270798,"ECCENTRICITY":0.0002603,"INCLINATION":0.0263,"RA_OF_ASC_NODE":287.7755,"ARG_OF_PERICENTER":107.3666,"MEAN_ANOMALY":227.9903,"EPHEMERIS_TYPE":0,"CLASSIFICATION_TYPE":"U","NORAD_CAT_ID":36516,"ELEMENT_SET_NO":999,"REV_AT_EPOCH":5850,"BSTAR":0,"MEAN_MOTION_DOT":-1.28e-6,"MEAN_MOTION_DDOT":0},{"OBJECT_NAME":"ASTRA 3B","OBJECT_ID":"2010-021A","EPOCH":"2026-04-25T18:51:18.629856","MEAN_MOTION":1.00268703,"ECCENTRICITY":0.0003902,"INCLINATION":1.3345,"RA_OF_ASC_NODE":84.1514,"ARG_OF_PERICENTER":319.1226,"MEAN_ANOMALY":116.8793,"EPHEMERIS_TYPE":0,"CLASSIFICATION_TYPE":"U","NORAD_CAT_ID":36581,"ELEMENT_SET_NO":999,"REV_AT_EPOCH":5834,"BSTAR":0,"MEAN_MOTION_DOT":1.24e-6,"MEAN_MOTION_DDOT":0},{"OBJECT_NAME":"SES-3","OBJECT_ID":"2011-035A","EPOCH":"2026-04-25T15:00:38.644992","MEAN_MOTION":1.00271558,"ECCENTRICITY":0.0003043,"INCLINATION":1.1923,"RA_OF_ASC_NODE":83.5924,"ARG_OF_PERICENTER":311.3348,"MEAN_ANOMALY":300.8772,"EPHEMERIS_TYPE":0,"CLASSIFICATION_TYPE":"U","NORAD_CAT_ID":37748,"ELEMENT_SET_NO":999,"REV_AT_EPOCH":5406,"BSTAR":0,"MEAN_MOTION_DOT":-1.15e-6,"MEAN_MOTION_DDOT":0},{"OBJECT_NAME":"ASTRA 1N","OBJECT_ID":"2011-041A","EPOCH":"2026-04-25T18:50:11.236992","MEAN_MOTION":1.00270196,"ECCENTRICITY":0.0005452,"INCLINATION":0.0965,"RA_OF_ASC_NODE":49.1434,"ARG_OF_PERICENTER":9.34,"MEAN_ANOMALY":97.0659,"EPHEMERIS_TYPE":0,"CLASSIFICATION_TYPE":"U","NORAD_CAT_ID":37775,"ELEMENT_SET_NO":999,"REV_AT_EPOCH":4400,"BSTAR":0,"MEAN_MOTION_DOT":1.06e-6,"MEAN_MOTION_DDOT":0}]
