AMC-3                   
1 24936U 97050A   26115.83797919 -.00000271  00000+0  00000+0 0  9992
2 24936   8.0204  64.6743 0003064 318.6000  60.2457  1.00271597 51913
NSS-11                  
1 26554U 00059A   26115.81587910  .00000013  00000+0  00000+0 0  9992
2 26554   1.9932  81.9709 0002818 311.9002 289.6664  1.00272328 40760
AMC-6                   
1 26580U 00067A   26115.68299315  .00000074  00000+0  00000+0 0  9991
2 26580   0.0737  68.5061 0003888 342.5633 273.4884  1.00273710 93367
AMC-11                  
1 28252U 04017A   26112.44711109 -.00000024  00000+0  00000+0 0  9995
2 28252   0.1658  82.1764 0007648  52.9899 122.7668  1.00142859 80309
AMC-15                  
1 28446U 04041A   26115.62544728 -.00000103  00000+0  00000+0 0  9999
2 28446   0.0492  54.7280 0002580 337.2203 301.7915  1.00277034 78771
NSS-10                  
1 28526U 05003A   26114.77532073 -.00000262  00000+0  00000+0 0  9998
2 28526   6.3158  71.0753 0003015 288.4515  94.9373  1.00271973 52623
ASTRA 1KR               
1 29055U 06012A   26115.78476563  .00000106  00000+0  00000+0 0  9996
2 29055   0.3397  82.5434 0003441 309.4157 123.3411  1.00273146 45178
ASTRA 1L                
1 31306U 07016A   26115.42197476 -.00000198  00000+0  00000+0 0  9999
2 31306   1.1870  81.9114 0004626 327.5338 291.3944  1.00271554 44459
ASTRA 4A                
1 32299U 07057A   26115.14025384  .00000018  00000+0  00000+0 0  9993
2 32299   0.0200  27.1684 0002674  18.0659 223.2240  1.00273242 51119
ASTRA 1M                
1 33436U 08057A   26115.78485228  .00000107  00000+0  00000+0 0  9994
2 33436   0.1624  79.3258 0003750   1.4170  74.9994  1.00273939 45214
NSS-9                   
1 33749U 09008A   26115.81726578  .00000059  00000+0  00000+0 0  9994
2 33749   1.1281  83.0801 0002160 293.4689 314.5546  1.00271385 62992
SES-7 (PROTOSTAR 2)     
1 34941U 09027A   26115.80244571 -.00000358  00000+0  00000+0 0  9990
2 34941   0.0951  79.1480 0001780 244.8253 286.9758  1.00270853 62101
NSS-12                  
1 36032U 09058A   26115.79230566  .00000058  00000+0  00000+0 0  9990
2 36032   0.0608  61.5946 0005054 309.9842 184.4460  1.00271862 60392
SES-1                   
1 36516U 10016A   26115.41862354 -.00000128  00000+0  00000+0 0  9997
2 36516   0.0263 287.7755 0002603 107.3666 227.9903  1.00270798 58509
ASTRA 3B                
1 36581U 10021A   26115.78563229  .00000124  00000+0  00000+0 0  9999
2 36581   1.3345  84.1514 0003902 319.1226 116.8793  1.00268703 58344
SES-3                   
1 37748U 11035A   26115.62544728 -.00000115  00000+0  00000+0 0  9998
2 37748   1.1923  83.5924 0003043 311.3348 300.8772  1.00271558 54062
ASTRA 1N                
1 37775U 11041A   26115.78485228  .00000106  00000+0  00000+0 0  9990
2 37775   0.0965  49.1434 0005452   9.3400  97.0659  1.00270196 44008
